{
  "norad_id": 65270,
  "name": "COSMOS 2594",
  "history": [
    {
      "epoch": "2026-03-28T02:27:29.163168Z",
      "apogee_km": 291.74860536644155,
      "perigee_km": 277.3352320615877,
      "latitude_deg": 1.8273683772235646e-05,
      "longitude_deg": 157.46009846884098,
      "height_km": 287.7172659225076,
      "semi_major_axis_km": 6662.678918714015,
      "eccentricity": 0.00108165,
      "inclination_deg": 96.592,
      "raan_deg": 19.8593,
      "arg_perigee_deg": 89.8676,
      "mean_anomaly_deg": 270.3842,
      "mean_motion_rev_day": 15.96354846
    }
  ]
}